[
  {
    "OBJECT_NAME": "STARLINK-34217",
    "OBJECT_ID": "25133S",
    "EPOCH": "2025-11-11T06:49:28.928640",
    "MEAN_MOTION": 15.39610107,
    "ECCENTRICITY": 0.000148,
    "INCLINATION": 53.1609,
    "RA_OF_ASC_NODE": 307.2318,
    "ARG_OF_PERICENTER": 91.0083,
    "MEAN_ANOMALY": 269.1092,
    "EPHEMERIS_TYPE": 0,
    "CLASSIFICATION_TYPE": "U",
    "NORAD_CAT_ID": 64488,
    "ELEMENT_SET_NO": 999,
    "REV_AT_EPOCH": 2294,
    "BSTAR": 0.00075376,
    "MEAN_MOTION_DOT": 0.00029858,
    "MEAN_MOTION_DDOT": 0.0,
    "TLE_LINE1": "1 64488U 25133S   25315.28436260  .00029858  00000+0  75376-3 0  9993",
    "TLE_LINE2": "2 64488  53.1609 307.2318 0001480  91.0083 269.1092 15.39610107 22943",
    "COMMENT": "Grouped by shell and plane from TLE"
  },
  {
    "OBJECT_NAME": "STARLINK-34307",
    "OBJECT_ID": "25133T",
    "EPOCH": "2025-11-11T06:43:16.611168",
    "MEAN_MOTION": 15.39647951,
    "ECCENTRICITY": 0.0001298,
    "INCLINATION": 53.1603,
    "RA_OF_ASC_NODE": 307.2037,
    "ARG_OF_PERICENTER": 79.9765,
    "MEAN_ANOMALY": 280.1386,
    "EPHEMERIS_TYPE": 0,
    "CLASSIFICATION_TYPE": "U",
    "NORAD_CAT_ID": 64489,
    "ELEMENT_SET_NO": 999,
    "REV_AT_EPOCH": 2303,
    "BSTAR": 0.0012014,
    "MEAN_MOTION_DOT": 0.00048004,
    "MEAN_MOTION_DDOT": 0.0,
    "TLE_LINE1": "1 64489U 25133T   25315.28005337  .00048004  00000+0  12014-2 0  9994",
    "TLE_LINE2": "2 64489  53.1603 307.2037 0001298  79.9765 280.1386 15.39647951 23032",
    "COMMENT": "Grouped by shell and plane from TLE"
  },
  {
    "OBJECT_NAME": "STARLINK-34505",
    "OBJECT_ID": "25133U",
    "EPOCH": "2025-11-11T06:42:47.522880",
    "MEAN_MOTION": 15.39638401,
    "ECCENTRICITY": 0.0001191,
    "INCLINATION": 53.1604,
    "RA_OF_ASC_NODE": 307.2028,
    "ARG_OF_PERICENTER": 91.8832,
    "MEAN_ANOMALY": 268.2309,
    "EPHEMERIS_TYPE": 0,
    "CLASSIFICATION_TYPE": "U",
    "NORAD_CAT_ID": 64490,
    "ELEMENT_SET_NO": 999,
    "REV_AT_EPOCH": 2303,
    "BSTAR": 0.0014763,
    "MEAN_MOTION_DOT": 0.00059145,
    "MEAN_MOTION_DDOT": 0.0,
    "TLE_LINE1": "1 64490U 25133U   25315.27971670  .00059145  00000+0  14763-2 0  9998",
    "TLE_LINE2": "2 64490  53.1604 307.2028 0001191  91.8832 268.2309 15.39638401 23037",
    "COMMENT": "Grouped by shell and plane from TLE"
  },
  {
    "OBJECT_NAME": "STARLINK-34530",
    "OBJECT_ID": "25133V",
    "EPOCH": "2025-11-11T06:36:35.314272",
    "MEAN_MOTION": 15.39633845,
    "ECCENTRICITY": 0.0001188,
    "INCLINATION": 53.1605,
    "RA_OF_ASC_NODE": 307.1726,
    "ARG_OF_PERICENTER": 97.1897,
    "MEAN_ANOMALY": 262.9243,
    "EPHEMERIS_TYPE": 0,
    "CLASSIFICATION_TYPE": "U",
    "NORAD_CAT_ID": 64491,
    "ELEMENT_SET_NO": 999,
    "REV_AT_EPOCH": 2303,
    "BSTAR": 0.0018,
    "MEAN_MOTION_DOT": 0.00072316,
    "MEAN_MOTION_DDOT": 0.0,
    "TLE_LINE1": "1 64491U 25133V   25315.27540873  .00072316  00000+0  18000-2 0  9999",
    "TLE_LINE2": "2 64491  53.1605 307.1726 0001188  97.1897 262.9243 15.39633845 23034",
    "COMMENT": "Grouped by shell and plane from TLE"
  },
  {
    "OBJECT_NAME": "STARLINK-34522",
    "OBJECT_ID": "25133W",
    "EPOCH": "2025-11-11T06:36:06.339168",
    "MEAN_MOTION": 15.39632743,
    "ECCENTRICITY": 0.0001064,
    "INCLINATION": 53.1604,
    "RA_OF_ASC_NODE": 307.1682,
    "ARG_OF_PERICENTER": 90.9564,
    "MEAN_ANOMALY": 269.1563,
    "EPHEMERIS_TYPE": 0,
    "CLASSIFICATION_TYPE": "U",
    "NORAD_CAT_ID": 64492,
    "ELEMENT_SET_NO": 999,
    "REV_AT_EPOCH": 2305,
    "BSTAR": 0.0018087,
    "MEAN_MOTION_DOT": 0.00072669,
    "MEAN_MOTION_DDOT": 0.0,
    "TLE_LINE1": "1 64492U 25133W   25315.27507337  .00072669  00000+0  18087-2 0  9994",
    "TLE_LINE2": "2 64492  53.1604 307.1682 0001064  90.9564 269.1563 15.39632743 23052",
    "COMMENT": "Grouped by shell and plane from TLE"
  },
  {
    "OBJECT_NAME": "STARLINK-34462",
    "OBJECT_ID": "25133X",
    "EPOCH": "2025-11-11T06:29:54.122784",
    "MEAN_MOTION": 15.39615167,
    "ECCENTRICITY": 0.0001442,
    "INCLINATION": 53.1602,
    "RA_OF_ASC_NODE": 307.1418,
    "ARG_OF_PERICENTER": 89.4664,
    "MEAN_ANOMALY": 270.6507,
    "EPHEMERIS_TYPE": 0,
    "CLASSIFICATION_TYPE": "U",
    "NORAD_CAT_ID": 64493,
    "ELEMENT_SET_NO": 999,
    "REV_AT_EPOCH": 2305,
    "BSTAR": 0.0018609999999999998,
    "MEAN_MOTION_DOT": 0.00074759,
    "MEAN_MOTION_DDOT": 0.0,
    "TLE_LINE1": "1 64493U 25133X   25315.27076531  .00074759  00000+0  18610-2 0  9996",
    "TLE_LINE2": "2 64493  53.1602 307.1418 0001442  89.4664 270.6507 15.39615167 23058",
    "COMMENT": "Grouped by shell and plane from TLE"
  },
  {
    "OBJECT_NAME": "STARLINK-34226",
    "OBJECT_ID": "25133Y",
    "EPOCH": "2025-11-11T06:29:24.931680",
    "MEAN_MOTION": 15.39629219,
    "ECCENTRICITY": 0.0001234,
    "INCLINATION": 53.1605,
    "RA_OF_ASC_NODE": 307.1401,
    "ARG_OF_PERICENTER": 89.1447,
    "MEAN_ANOMALY": 270.97,
    "EPHEMERIS_TYPE": 0,
    "CLASSIFICATION_TYPE": "U",
    "NORAD_CAT_ID": 64494,
    "ELEMENT_SET_NO": 999,
    "REV_AT_EPOCH": 2288,
    "BSTAR": 0.0014315,
    "MEAN_MOTION_DOT": 0.00057309,
    "MEAN_MOTION_DDOT": 0.0,
    "TLE_LINE1": "1 64494U 25133Y   25315.27042745  .00057309  00000+0  14315-2 0  9997",
    "TLE_LINE2": "2 64494  53.1605 307.1401 0001234  89.1447 270.9700 15.39629219 22880",
    "COMMENT": "Grouped by shell and plane from TLE"
  },
  {
    "OBJECT_NAME": "STARLINK-34364",
    "OBJECT_ID": "25133Z",
    "EPOCH": "2025-11-11T07:13:26.755968",
    "MEAN_MOTION": 15.30217816,
    "ECCENTRICITY": 0.0001294,
    "INCLINATION": 53.1616,
    "RA_OF_ASC_NODE": 304.4685,
    "ARG_OF_PERICENTER": 82.8525,
    "MEAN_ANOMALY": 277.2623,
    "EPHEMERIS_TYPE": 0,
    "CLASSIFICATION_TYPE": "U",
    "NORAD_CAT_ID": 64495,
    "ELEMENT_SET_NO": 999,
    "REV_AT_EPOCH": 2309,
    "BSTAR": 0.00071559,
    "MEAN_MOTION_DOT": 0.00020906,
    "MEAN_MOTION_DDOT": 0.0,
    "TLE_LINE1": "1 64495U 25133Z   25315.30100412  .00020906  00000+0  71559-3 0  9995",
    "TLE_LINE2": "2 64495  53.1616 304.4685 0001294  82.8525 277.2623 15.30217816 23095",
    "COMMENT": "Grouped by shell and plane from TLE"
  },
  {
    "OBJECT_NAME": "STARLINK-34268",
    "OBJECT_ID": "25133AA",
    "EPOCH": "2025-11-11T06:23:13.009920",
    "MEAN_MOTION": 15.39638452,
    "ECCENTRICITY": 0.0001512,
    "INCLINATION": 53.1607,
    "RA_OF_ASC_NODE": 307.1128,
    "ARG_OF_PERICENTER": 96.5674,
    "MEAN_ANOMALY": 263.5503,
    "EPHEMERIS_TYPE": 0,
    "CLASSIFICATION_TYPE": "U",
    "NORAD_CAT_ID": 64496,
    "ELEMENT_SET_NO": 999,
    "REV_AT_EPOCH": 2305,
    "BSTAR": 0.0016724,
    "MEAN_MOTION_DOT": 0.00067127,
    "MEAN_MOTION_DDOT": 0.0,
    "TLE_LINE1": "1 64496U 25133AA  25315.26612280  .00067127  00000+0  16724-2 0  9990",
    "TLE_LINE2": "2 64496  53.1607 307.1128 0001512  96.5674 263.5503 15.39638452 23051",
    "COMMENT": "Grouped by shell and plane from TLE"
  },
  {
    "OBJECT_NAME": "STARLINK-34363",
    "OBJECT_ID": "25133AB",
    "EPOCH": "2025-11-11T06:16:31.908288",
    "MEAN_MOTION": 15.3963143,
    "ECCENTRICITY": 0.0001459,
    "INCLINATION": 53.1607,
    "RA_OF_ASC_NODE": 307.0827,
    "ARG_OF_PERICENTER": 103.8204,
    "MEAN_ANOMALY": 256.2963,
    "EPHEMERIS_TYPE": 0,
    "CLASSIFICATION_TYPE": "U",
    "NORAD_CAT_ID": 64497,
    "ELEMENT_SET_NO": 999,
    "REV_AT_EPOCH": 2305,
    "BSTAR": 0.001357,
    "MEAN_MOTION_DOT": 0.00054289,
    "MEAN_MOTION_DDOT": 0.0,
    "TLE_LINE1": "1 64497U 25133AB  25315.26148042  .00054289  00000+0  13570-2 0  9992",
    "TLE_LINE2": "2 64497  53.1607 307.0827 0001459 103.8204 256.2963 15.39631430 23056",
    "COMMENT": "Grouped by shell and plane from TLE"
  },
  {
    "OBJECT_NAME": "STARLINK-34427",
    "OBJECT_ID": "25133AC",
    "EPOCH": "2025-11-11T06:16:02.756928",
    "MEAN_MOTION": 15.39637641,
    "ECCENTRICITY": 0.0001399,
    "INCLINATION": 53.1605,
    "RA_OF_ASC_NODE": 307.0808,
    "ARG_OF_PERICENTER": 95.4046,
    "MEAN_ANOMALY": 264.7119,
    "EPHEMERIS_TYPE": 0,
    "CLASSIFICATION_TYPE": "U",
    "NORAD_CAT_ID": 64498,
    "ELEMENT_SET_NO": 999,
    "REV_AT_EPOCH": 2305,
    "BSTAR": 0.0011301,
    "MEAN_MOTION_DOT": 0.000451,
    "MEAN_MOTION_DDOT": 0.0,
    "TLE_LINE1": "1 64498U 25133AC  25315.26114302  .00045100  00000+0  11301-2 0  9997",
    "TLE_LINE2": "2 64498  53.1605 307.0808 0001399  95.4046 264.7119 15.39637641 23054",
    "COMMENT": "Grouped by shell and plane from TLE"
  },
  {
    "OBJECT_NAME": "STARLINK-35336",
    "OBJECT_ID": "25232B",
    "EPOCH": "2025-11-10T06:02:28.272768",
    "MEAN_MOTION": 15.49362621,
    "ECCENTRICITY": 0.0001577,
    "INCLINATION": 53.1592,
    "RA_OF_ASC_NODE": 300.4934,
    "ARG_OF_PERICENTER": 73.4085,
    "MEAN_ANOMALY": 286.7097,
    "EPHEMERIS_TYPE": 0,
    "CLASSIFICATION_TYPE": "U",
    "NORAD_CAT_ID": 66006,
    "ELEMENT_SET_NO": 999,
    "REV_AT_EPOCH": 511,
    "BSTAR": 0.0022486,
    "MEAN_MOTION_DOT": 0.00126902,
    "MEAN_MOTION_DDOT": 0.0,
    "TLE_LINE1": "1 66006U 25232B   25314.25171612  .00126902  00000+0  22486-2 0  9995",
    "TLE_LINE2": "2 66006  53.1592 300.4934 0001577  73.4085 286.7097 15.49362621  5110",
    "COMMENT": "Grouped by shell and plane from TLE"
  }
]